NOAA 1 [-]              
1 04793U 70106A   23206.11765205 -.00000037  00000+0  38794-4 0  9992
2 04793 101.5003 263.8214 0031113 257.3523 130.4773 12.54017121408064
NOAA 2 (ITOS-D) [-]     
1 06235U 72082A   23206.46819235 -.00000019  00000+0  17481-3 0  9990
2 06235 101.9924 196.9343 0004349  30.5850  86.3652 12.53165144322458
NOAA 3 [-]              
1 06920U 73086A   23206.51362150 -.00000039  00000+0  56393-4 0  9999
2 06920 102.2486 194.9851 0006077 269.8101 203.4391 12.40356109250769
NOAA 4 [-]              
1 07529U 74089A   23206.52383341 -.00000027  00000+0  12165-3 0  9990
2 07529 101.9573 193.1377 0009423  54.7448  56.4587 12.53170329227034
NOAA 5 [-]              
1 09057U 76077A   23206.47464855 -.00000014  00000+0  23788-3 0  9990
2 09057 102.1550 176.1360 0010061 114.7921   0.0920 12.37786717123606
TIROS N [-]             
1 11060U 78096A   23206.11852790  .00000207  00000+0  12016-3 0  9995
2 11060  98.5806 252.9776 0011613  66.6492 293.5904 14.18600322528698
NOAA 6 [-]              
1 11416U 79057A   23206.51949388  .00000398  00000+0  15825-3 0  9994
2 11416  98.6503 222.8305 0011005 143.7209 216.4723 14.34104730299283
NOAA 7 [-]              
1 12553U 81059A   23206.17236673  .00000069  00000+0  56360-4 0  9995
2 12553  98.9438 259.3453 0012295  53.3309 306.8993 14.17424771174842
NOAA 8 [-]              
1 13923U 83022A   23206.48447035  .00000200  00000+0  96626-4 0  9995
2 13923  98.7136 201.1838 0016158 109.7016 250.5910 14.29011355 99968
NOAA 9 [-]              
1 15427U 84123A   23206.50057453  .00000188  00000+0  11762-3 0  9995
2 15427  99.0914 191.3716 0015882 102.8935   7.7816 14.16386528993669
NOAA 10 [-]             
1 16969U 86073A   23206.48418338  .00000181  00000+0  89993-4 0  9998
2 16969  98.6059 191.1720 0011530 206.8701 268.4508 14.28390893918362
NOAA 11 [-]             
1 19531U 88089A   23206.50854681  .00000081  00000+0  62508-4 0  9995
2 19531  98.4679 179.4436 0012331  96.8200 263.4378 14.15412718797834
NOAA 12 [-]             
1 21263U 91032A   23206.51118019  .00000127  00000+0  71034-4 0  9996
2 21263  98.5333 200.5058 0012601 237.6493 122.3468 14.26140408674172
NOAA 13 [-]             
1 22739U 93050A   23206.45741746  .00000165  00000+0  11083-3 0  9998
2 22739  98.5553 172.3548 0008294 271.1526  88.8696 14.13017448543962
NOAA 14 [-]             
1 23455U 94089A   23206.54411423  .00000057  00000+0  51235-4 0  9997
2 23455  98.4256 215.9115 0008369 241.9360 118.0968 14.14286962473684
NOAA 15 [B]             
1 25338U 98030A   23206.52837932  .00000247  00000+0  12089-3 0  9998
2 25338  98.6039 234.9262 0010017 195.4353 164.6524 14.26358552310479
NOAA 16 [-]             
1 26536U 00055A   23206.55835097  .00000090  00000+0  70240-4 0  9992
2 26536  98.5808 255.3181 0011684  93.8807 266.3702 14.13448713474290
NOAA 17 [-]             
1 27453U 02032A   23206.54950468  .00000201  00000+0  10410-3 0  9993
2 27453  98.7173 153.2208 0011748 174.5659 185.5650 14.25331608 96274
NOAA 18 [B]             
1 28654U 05018A   23206.44665294  .00000220  00000+0  14200-3 0  9995
2 28654  98.9085 280.6505 0013156 271.3938  88.5727 14.12975195936886
NOAA 19 [+]             
1 33591U 09005A   23206.56683431  .00000205  00000+0  13502-3 0  9994
2 33591  99.0971 253.1024 0014718 132.4799 227.7619 14.12792043745105
SUOMI NPP [+]           
1 37849U 11061A   23206.52511368  .00000115  00000+0  75346-4 0  9999
2 37849  98.7047 144.5927 0001407 102.5936  16.7792 14.19549406608388
NOAA 20 [+]             
1 43013U 17073A   23206.53677806  .00000081  00000+0  59086-4 0  9994
2 43013  98.7126 144.4039 0001344  65.1236 295.0080 14.19548110294414
NOAA 21 (JPSS-2) [+]    
1 54234U 22150A   23206.55249352  .00000117  00000+0  75931-4 0  9993
2 54234  98.7166 143.9054 0001036  66.2249 293.9036 14.19565960 36492
